{
  "type": "FeatureCollection",
  "features": [
    {
      "type": "Feature",
      "properties": {
        "norad_id": 25730,
        "name": "FENGYUN 1C",
        "group": "fengyun-1c-debris",
        "lat": -47.53560547079323,
        "lon": -139.86448412270326,
        "alt_km": 818.6928262244965,
        "timestamp": "2025-12-09T23:33:24.125428+00:00",
        "meta_object_name": "FENGYUN 1C",
        "meta_object_id": "1999-025A",
        "meta_epoch": "2025-12-09T10:42:10.545696",
        "meta_mean_motion": 14.26023884,
        "meta_eccentricity": 0.00107974,
        "meta_inclination": 98.8839,
        "meta_ra_of_asc_node": 49.433,
        "meta_arg_of_pericenter": 77.1905,
        "meta_mean_anomaly": 283.0481,
        "meta_ephemeris_type": 0,
        "meta_classification_type": "U",
        "meta_norad_cat_id": 25730,
        "meta_element_set_no": 999,
        "meta_rev_at_epoch": 37090,
        "meta_bstar": 0.0017894466,
        "meta_mean_motion_dot": 4.231e-05,
        "meta_mean_motion_ddot": 0,
        "tle_line1": "1 25730U 99025A   25343.44595539  .00004231  00000+0  17894-2 0  9993",
        "tle_line2": "2 25730  98.8839  49.4330 0010797  77.1905 283.0481 14.26023884370903"
      },
      "geometry": {
        "type": "Point",
        "coordinates": [
          -139.86448412270326,
          -47.53560547079323
        ]
      }
    },
    {
      "type": "Feature",
      "properties": {
        "norad_id": 29733,
        "name": "FENGYUN 1C DEB",
        "group": "fengyun-1c-debris",
        "lat": 28.173068237333336,
        "lon": 35.47016053632582,
        "alt_km": 1710.639881103264,
        "timestamp": "2025-12-09T23:33:24.125450+00:00",
        "meta_object_name": "FENGYUN 1C DEB",
        "meta_object_id": "1999-025X",
        "meta_epoch": "2025-12-09T10:33:04.070880",
        "meta_mean_motion": 12.96457178,
        "meta_eccentricity": 0.05696658,
        "meta_inclination": 99.2246,
        "meta_ra_of_asc_node": 40.0035,
        "meta_arg_of_pericenter": 209.5667,
        "meta_mean_anomaly": 171.215,
        "meta_ephemeris_type": 0,
        "meta_classification_type": "U",
        "meta_norad_cat_id": 29733,
        "meta_element_set_no": 999,
        "meta_rev_at_epoch": 89077,
        "meta_bstar": 0.0027752223,
        "meta_mean_motion_dot": 1.641e-05,
        "meta_mean_motion_ddot": 0,
        "tle_line1": "1 29733U 99025X   25343.43963045  .00001641  00000+0  27752-2 0  9996",
        "tle_line2": "2 29733  99.2246  40.0035 0569665 209.5667 171.2150 12.96457178890770"
      },
      "geometry": {
        "type": "Point",
        "coordinates": [
          35.47016053632582,
          28.173068237333336
        ]
      }
    },
    {
      "type": "Feature",
      "properties": {
        "norad_id": 29734,
        "name": "FENGYUN 1C DEB",
        "group": "fengyun-1c-debris",
        "lat": -71.76269688154758,
        "lon": 64.98421821187625,
        "alt_km": 1546.455490459015,
        "timestamp": "2025-12-09T23:33:24.125464+00:00",
        "meta_object_name": "FENGYUN 1C DEB",
        "meta_object_id": "1999-025Y",
        "meta_epoch": "2025-12-08T18:28:02.616672",
        "meta_mean_motion": 12.91267201,
        "meta_eccentricity": 0.06150217,
        "meta_inclination": 99.1702,
        "meta_ra_of_asc_node": 273.3243,
        "meta_arg_of_pericenter": 20.8389,
        "meta_mean_anomaly": 7.7445,
        "meta_ephemeris_type": 0,
        "meta_classification_type": "U",
        "meta_norad_cat_id": 29734,
        "meta_element_set_no": 999,
        "meta_rev_at_epoch": 88497,
        "meta_bstar": 0.007085143,
        "meta_mean_motion_dot": 4.373e-05,
        "meta_mean_motion_ddot": 0,
        "tle_line1": "1 29734U 99025Y   25342.76947473  .00004373  00000+0  70851-2 0  9992",
        "tle_line2": "2 29734  99.1702 273.3243 0615021  20.8389   7.7445 12.91267201884978"
      },
      "geometry": {
        "type": "Point",
        "coordinates": [
          64.98421821187625,
          -71.76269688154758
        ]
      }
    },
    {
      "type": "Feature",
      "properties": {
        "norad_id": 29735,
        "name": "FENGYUN 1C DEB",
        "group": "fengyun-1c-debris",
        "lat": -18.212737016349806,
        "lon": -97.48101638720114,
        "alt_km": 1869.629318912549,
        "timestamp": "2025-12-09T23:33:24.125476+00:00",
        "meta_object_name": "FENGYUN 1C DEB",
        "meta_object_id": "1999-025Z",
        "meta_epoch": "2025-12-09T12:22:01.884576",
        "meta_mean_motion": 12.75039943,
        "meta_eccentricity": 0.06976421,
        "meta_inclination": 99.3911,
        "meta_ra_of_asc_node": 259.0094,
        "meta_arg_of_pericenter": 182.493,
        "meta_mean_anomaly": 177.261,
        "meta_ephemeris_type": 0,
        "meta_classification_type": "U",
        "meta_norad_cat_id": 29735,
        "meta_element_set_no": 999,
        "meta_rev_at_epoch": 87374,
        "meta_bstar": 0.001856695,
        "meta_mean_motion_dot": 1.049e-05,
        "meta_mean_motion_ddot": 0,
        "tle_line1": "1 29735U 99025Z   25343.51529959  .00001049  00000+0  18567-2 0  9995",
        "tle_line2": "2 29735  99.3911 259.0094 0697642 182.4930 177.2610 12.75039943873746"
      },
      "geometry": {
        "type": "Point",
        "coordinates": [
          -97.48101638720114,
          -18.212737016349806
        ]
      }
    },
    {
      "type": "Feature",
      "properties": {
        "norad_id": 29736,
        "name": "FENGYUN 1C DEB",
        "group": "fengyun-1c-debris",
        "lat": -69.1851912017408,
        "lon": -170.26177719208687,
        "alt_km": 1341.7254986265953,
        "timestamp": "2025-12-09T23:33:24.125487+00:00",
        "meta_object_name": "FENGYUN 1C DEB",
        "meta_object_id": "1999-025AA",
        "meta_epoch": "2025-12-09T11:01:45.507936",
        "meta_mean_motion": 12.57481916,
        "meta_eccentricity": 0.07256578,
        "meta_inclination": 99.4006,
        "meta_ra_of_asc_node": 163.4842,
        "meta_arg_of_pericenter": 205.7268,
        "meta_mean_anomaly": 232.9192,
        "meta_ephemeris_type": 0,
        "meta_classification_type": "U",
        "meta_norad_cat_id": 29736,
        "meta_element_set_no": 999,
        "meta_rev_at_epoch": 86503,
        "meta_bstar": 0.0034047593,
        "meta_mean_motion_dot": 1.521e-05,
        "meta_mean_motion_ddot": 0,
        "tle_line1": "1 29736U 99025AA  25343.45955449  .00001521  00000+0  34048-2 0  9993",
        "tle_line2": "2 29736  99.4006 163.4842 0725657 205.7268 232.9192 12.57481916865031"
      },
      "geometry": {
        "type": "Point",
        "coordinates": [
          -170.26177719208687,
          -69.1851912017408
        ]
      }
    },
    {
      "type": "Feature",
      "properties": {
        "norad_id": 29737,
        "name": "FENGYUN 1C DEB",
        "group": "fengyun-1c-debris",
        "lat": -61.39674782823944,
        "lon": -42.45676938137322,
        "alt_km": 1878.0160929014428,
        "timestamp": "2025-12-09T23:33:24.125498+00:00",
        "meta_object_name": "FENGYUN 1C DEB",
        "meta_object_id": "1999-025AB",
        "meta_epoch": "2025-12-09T15:23:33.470304",
        "meta_mean_motion": 12.65643748,
        "meta_eccentricity": 0.0694496,
        "meta_inclination": 99.5808,
        "meta_ra_of_asc_node": 299.217,
        "meta_arg_of_pericenter": 145.2632,
        "meta_mean_anomaly": 38.843,
        "meta_ephemeris_type": 0,
        "meta_classification_type": "U",
        "meta_norad_cat_id": 29737,
        "meta_element_set_no": 999,
        "meta_rev_at_epoch": 86829,
        "meta_bstar": 0.0023227028,
        "meta_mean_motion_dot": 1.097e-05,
        "meta_mean_motion_ddot": 0,
        "tle_line1": "1 29737U 99025AB  25343.64135961  .00001097  00000+0  23227-2 0  9999",
        "tle_line2": "2 29737  99.5808 299.2170 0694496 145.2632  38.8430 12.65643748868295"
      },
      "geometry": {
        "type": "Point",
        "coordinates": [
          -42.45676938137322,
          -61.39674782823944
        ]
      }
    },
    {
      "type": "Feature",
      "properties": {
        "norad_id": 29738,
        "name": "FENGYUN 1C DEB",
        "group": "fengyun-1c-debris",
        "lat": 15.651262182660835,
        "lon": 148.74444868697728,
        "alt_km": 1197.2804451814045,
        "timestamp": "2025-12-09T23:33:24.125509+00:00",
        "meta_object_name": "FENGYUN 1C DEB",
        "meta_object_id": "1999-025AC",
        "meta_epoch": "2025-12-09T10:09:02.116224",
        "meta_mean_motion": 12.61016909,
        "meta_eccentricity": 0.08642852,
        "meta_inclination": 99.4097,
        "meta_ra_of_asc_node": 150.9504,
        "meta_arg_of_pericenter": 301.6624,
        "meta_mean_anomaly": 50.2957,
        "meta_ephemeris_type": 0,
        "meta_classification_type": "U",
        "meta_norad_cat_id": 29738,
        "meta_element_set_no": 999,
        "meta_rev_at_epoch": 86175,
        "meta_bstar": 0.0035835221,
        "meta_mean_motion_dot": 2.69e-05,
        "meta_mean_motion_ddot": 0,
        "tle_line1": "1 29738U 99025AC  25343.42294116  .00002690  00000+0  35835-2 0  9992",
        "tle_line2": "2 29738  99.4097 150.9504 0864285 301.6624  50.2957 12.61016909861758"
      },
      "geometry": {
        "type": "Point",
        "coordinates": [
          148.74444868697728,
          15.651262182660835
        ]
      }
    }
  ]
}